ONEWEB-0196             
1 48218U 21031J   26159.08291602 -.00000180  00000+0 -51904-3 0  9993
2 48218  87.8959 291.5218 0001910 105.0334 255.1007 13.14502296247035
ONEWEB-0183             
1 48219U 21031K   26159.05754755  .00000161  00000+0  40107-3 0  9994
2 48219  87.8955 291.5249 0002058  97.8048 262.3316 13.14502758247126
ONEWEB-0185             
1 48220U 21031L   26159.08369896 -.00000233  00000+0 -66345-3 0  9991
2 48220  87.8961 291.5129 0002291 104.8029 255.3354 13.14501665247051
ONEWEB-0187             
1 48221U 21031M   26159.06375125  .00000124  00000+0  29948-3 0  9997
2 48221  87.8952 291.5331 0002019 105.7511 254.3841 13.14502651247068
ONEWEB-0192             
1 48222U 21031N   26159.10986074  .00000092  00000+0  21360-3 0  9998
2 48222  87.8952 291.5143 0001804 102.9205 257.2126 13.14504413246986
ONEWEB-0219             
1 48223U 21031P   26159.08924514 -.00000197  00000+0 -56702-3 0  9993
2 48223  87.8952 291.5105 0002089 105.4706 254.6654 13.14503805247189
ONEWEB-0202             
1 48224U 21031Q   26159.07023296 -.00000083  00000+0 -25857-3 0  9991
2 48224  87.8960 291.5260 0001512 119.8268 240.3013 13.14502530247166
ONEWEB-0204             
1 48225U 21031R   26158.64762068  .00000106  00000+0  25097-3 0  9991
2 48225  87.8958 291.6050 0002206  97.2368 262.9013 13.14502036247007
ONEWEB-0205             
1 48226U 21031S   26159.07973463 -.00000047  00000+0 -16164-3 0  9994
2 48226  87.8967 291.5111 0001956 107.9888 252.1455 13.14504786247074
ONEWEB-0206             
1 48227U 21031T   26159.12890773  .00000224  00000+0  57055-3 0  9992
2 48227  87.8963 291.5035 0001817  94.3032 265.8305 13.14502823247033
ONEWEB-0182             
1 48228U 21031U   26159.12414749  .00000257  00000+0  66003-3 0  9997
2 48228  87.8958 291.5126 0002097  97.0503 263.0865 13.14501547247249
ONEWEB-0186             
1 48229U 21031V   26159.05912686  .00000146  00000+0  35858-3 0  9994
2 48229  87.8969 291.5152 0001955 102.8506 257.2843 13.14502084247182
ONEWEB-0181             
1 48230U 21031W   26159.11305025  .00000142  00000+0  34807-3 0  9995
2 48230  87.8946 291.5356 0001880 106.6034 253.5303 13.14502877247045
ONEWEB-0188             
1 48231U 21031X   26159.07498810 -.00000035  00000+0 -13020-3 0  9993
2 48231  87.8951 291.5420 0001920 100.8313 259.3033 13.14503662246940
ONEWEB-0220             
1 48232U 21031Y   26159.19073500  .00000140  00000+0  34444-3 0  9990
2 48232  87.8964 291.4909 0002115 106.9371 253.1990 13.14501709247220
ONEWEB-0165             
1 48233U 21031Z   26159.06704561 -.00000026  00000+0 -10431-3 0  9990
2 48233  87.8960 291.5288 0001769 111.9563 248.1754 13.14500997247164
ONEWEB-0199             
1 48234U 21031AA  26159.12732097  .00000120  00000+0  28885-3 0  9998
2 48234  87.8964 291.5020 0001903  94.5381 265.5966 13.14502467247079
ONEWEB-0203             
1 48235U 21031AB  26158.88945262  .00000209  00000+0  53003-3 0  9999
2 48235  87.8965 291.5532 0001731  99.7370 260.3955 13.14501576247052
ONEWEB-0197             
1 48236U 21031AC  26159.09229432 -.00000215  00000+0 -61317-3 0  9994
2 48236  87.8952 291.4997 0002222  99.2864 260.8518 13.14503533246999
ONEWEB-0194             
1 48237U 21031AD  26159.07181297 -.00000086  00000+0 -26600-3 0  9991
2 48237  87.8962 291.5251 0001727  94.4169 265.7158 13.14502008247169
ONEWEB-0193             
1 48238U 21031AE  26159.08766824 -.00000187  00000+0 -54024-3 0  9991
2 48238  87.8956 291.5128 0001635  88.0385 272.0931 13.14502252247119
ONEWEB-0191             
1 48239U 21031AF  26158.79430419 -.00000073  00000+0 -23048-3 0  9993
2 48239  87.8963 291.5693 0002074  97.5650 262.5715 13.14502369246935
ONEWEB-0195             
1 48240U 21031AG  26159.07576367 -.00000038  00000+0 -13708-3 0  9993
2 48240  87.8965 291.5139 0001833 112.5029 247.6295 13.14501206246952
ONEWEB-0201             
1 48241U 21031AH  26159.06402043  .00000055  00000+0  11389-3 0  9992
2 48241  87.8958 291.5329 0002193 100.7292 259.4084 13.14503976247186
ONEWEB-0207             
1 48242U 21031AJ  26159.12018230  .00000253  00000+0  64679-3 0  9991
2 48242  87.8963 291.5060 0002158 101.4682 258.6690 13.14502058247103
ONEWEB-0208             
1 48243U 21031AK  26158.64524196  .00000103  00000+0  24221-3 0  9994
2 48243  87.8957 291.6076 0001756 110.5278 249.6041 13.14503318247054
ONEWEB-0200             
1 48244U 21031AL  26159.06546700  .00000053  00000+0  10881-3 0  9998
2 48244  87.8964 291.5098 0001908 102.9644 257.1699 13.14502311247030
ONEWEB-0217             
1 48245U 21031AM  26159.08132731 -.00000098  00000+0 -29952-3 0  9996
2 48245  87.8964 291.5112 0001821 111.0406 249.0918 13.14501865246989
ONEWEB-0211             
1 48767U 21045A   26158.99252988 -.00000017  00000+0 -78404-4 0  9994
2 48767  87.9004 260.9150 0001592 120.2893 239.8395 13.16196217243237
ONEWEB-0223             
1 48768U 21045B   26158.99031707 -.00000064  00000+0 -20395-3 0  9996
2 48768  87.9010 261.0213 0001535 105.9599 254.1701 13.15544912243191
