OBJECT_NAME,OBJECT_ID,EPOCH,MEAN_MOTION,ECCENTRICITY,INCLINATION,RA_OF_ASC_NODE,ARG_OF_PERICENTER,MEAN_ANOMALY,EPHEMERIS_TYPE,CLASSIFICATION_TYPE,NORAD_CAT_ID,ELEMENT_SET_NO,REV_AT_EPOCH,BSTAR,MEAN_MOTION_DOT,MEAN_MOTION_DDOT
ONEWEB-0196,2021-031J,2026-06-08T01:59:23.944128,13.14502296,.000191,87.8959,291.5218,105.0334,255.1007,0,U,48218,999,24703,-.51904E-3,-.18E-5,0
ONEWEB-0183,2021-031K,2026-06-08T01:22:52.108320,13.14502758,.0002058,87.8955,291.5249,97.8048,262.3316,0,U,48219,999,24712,.40107E-3,.161E-5,0
ONEWEB-0185,2021-031L,2026-06-08T02:00:31.590144,13.14501665,.0002291,87.8961,291.5129,104.8029,255.3354,0,U,48220,999,24705,-.66345E-3,-.233E-5,0
ONEWEB-0187,2021-031M,2026-06-08T01:31:48.108000,13.14502651,.0002019,87.8952,291.5331,105.7511,254.3841,0,U,48221,999,24706,.29948E-3,.124E-5,0
ONEWEB-0192,2021-031N,2026-06-08T02:38:11.967936,13.14504413,.0001804,87.8952,291.5143,102.9205,257.2126,0,U,48222,999,24698,.2136E-3,.92E-6,0
ONEWEB-0219,2021-031P,2026-06-08T02:08:30.780096,13.14503805,.0002089,87.8952,291.5105,105.4706,254.6654,0,U,48223,999,24718,-.56702E-3,-.197E-5,0
ONEWEB-0202,2021-031Q,2026-06-08T01:41:08.127744,13.14502530,.0001512,87.8960,291.5260,119.8268,240.3013,0,U,48224,999,24716,-.25857E-3,-.83E-6,0
ONEWEB-0204,2021-031R,2026-06-07T15:32:34.426752,13.14502036,.0002206,87.8958,291.6050,97.2368,262.9013,0,U,48225,999,24700,.25097E-3,.106E-5,0
ONEWEB-0205,2021-031S,2026-06-08T01:54:49.072032,13.14504786,.0001956,87.8967,291.5111,107.9888,252.1455,0,U,48226,999,24707,-.16164E-3,-.47E-6,0
ONEWEB-0206,2021-031T,2026-06-08T03:05:37.627872,13.14502823,.0001817,87.8963,291.5035,94.3032,265.8305,0,U,48227,999,24703,.57055E-3,.224E-5,0
ONEWEB-0182,2021-031U,2026-06-08T02:58:46.343136,13.14501547,.0002097,87.8958,291.5126,97.0503,263.0865,0,U,48228,999,24724,.66003E-3,.257E-5,0
ONEWEB-0186,2021-031V,2026-06-08T01:25:08.560704,13.14502084,.0001955,87.8969,291.5152,102.8506,257.2843,0,U,48229,999,24718,.35858E-3,.146E-5,0
ONEWEB-0181,2021-031W,2026-06-08T02:42:47.541600,13.14502877,.000188,87.8946,291.5356,106.6034,253.5303,0,U,48230,999,24704,.34807E-3,.142E-5,0
ONEWEB-0188,2021-031X,2026-06-08T01:47:58.971840,13.14503662,.000192,87.8951,291.5420,100.8313,259.3033,0,U,48231,999,24694,-.1302E-3,-.35E-6,0
ONEWEB-0220,2021-031Y,2026-06-08T04:34:39.504000,13.14501709,.0002115,87.8964,291.4909,106.9371,253.1990,0,U,48232,999,24722,.34444E-3,.14E-5,0
ONEWEB-0165,2021-031Z,2026-06-08T01:36:32.740704,13.14500997,.0001769,87.8960,291.5288,111.9563,248.1754,0,U,48233,999,24716,-.10431E-3,-.26E-6,0
ONEWEB-0199,2021-031AA,2026-06-08T03:03:20.531808,13.14502467,.0001903,87.8964,291.5020,94.5381,265.5966,0,U,48234,999,24707,.28885E-3,.12E-5,0
ONEWEB-0203,2021-031AB,2026-06-07T21:20:48.706368,13.14501576,.0001731,87.8965,291.5532,99.7370,260.3955,0,U,48235,999,24705,.53003E-3,.209E-5,0
ONEWEB-0197,2021-031AC,2026-06-08T02:12:54.229248,13.14503533,.0002222,87.8952,291.4997,99.2864,260.8518,0,U,48236,999,24699,-.61317E-3,-.215E-5,0
ONEWEB-0194,2021-031AD,2026-06-08T01:43:24.640608,13.14502008,.0001727,87.8962,291.5251,94.4169,265.7158,0,U,48237,999,24716,-.266E-3,-.86E-6,0
ONEWEB-0193,2021-031AE,2026-06-08T02:06:14.535936,13.14502252,.0001635,87.8956,291.5128,88.0385,272.0931,0,U,48238,999,24711,-.54024E-3,-.187E-5,0
ONEWEB-0191,2021-031AF,2026-06-07T19:03:47.882016,13.14502369,.0002074,87.8963,291.5693,97.5650,262.5715,0,U,48239,999,24693,-.23048E-3,-.73E-6,0
ONEWEB-0195,2021-031AG,2026-06-08T01:49:05.981088,13.14501206,.0001833,87.8965,291.5139,112.5029,247.6295,0,U,48240,999,24695,-.13708E-3,-.38E-6,0
ONEWEB-0201,2021-031AH,2026-06-08T01:32:11.365152,13.14503976,.0002193,87.8958,291.5329,100.7292,259.4084,0,U,48241,999,24718,.11389E-3,.55E-6,0
ONEWEB-0207,2021-031AJ,2026-06-08T02:53:03.750720,13.14502058,.0002158,87.8963,291.5060,101.4682,258.6690,0,U,48242,999,24710,.64679E-3,.253E-5,0
ONEWEB-0208,2021-031AK,2026-06-07T15:29:08.905344,13.14503318,.0001756,87.8957,291.6076,110.5278,249.6041,0,U,48243,999,24705,.24221E-3,.103E-5,0
ONEWEB-0200,2021-031AL,2026-06-08T01:34:16.348800,13.14502311,.0001908,87.8964,291.5098,102.9644,257.1699,0,U,48244,999,24703,.10881E-3,.53E-6,0
ONEWEB-0217,2021-031AM,2026-06-08T01:57:06.679584,13.14501865,.0001821,87.8964,291.5112,111.0406,249.0918,0,U,48245,999,24698,-.29952E-3,-.98E-6,0
ONEWEB-0211,2021-045A,2026-06-07T23:49:14.581632,13.16196217,.0001592,87.9004,260.9150,120.2893,239.8395,0,U,48767,999,24323,-.78404E-4,-.17E-6,0
ONEWEB-0223,2021-045B,2026-06-07T23:46:03.394848,13.15544912,.0001535,87.9010,261.0213,105.9599,254.1701,0,U,48768,999,24319,-.20395E-3,-.64E-6,0
